{"type": "FeatureCollection", "features": [ {"type": "Feature", "properties": {"norad_id": 30829, "name": "FENGYUN 1C DEB", "group": "fengyun-1c-debris", "lat": 68.80561431741839, "lon": -29.345921501728903, "alt_km": 876.2843953678712, "timestamp": "2025-12-27T21:25:02.793211+00:00", "meta": {"OBJECT_NAME": "FENGYUN 1C DEB", "OBJECT_ID": "1999-025AVP", "EPOCH": "2025-12-26T22:55:19.503840", "MEAN_MOTION": 14.08675637, "ECCENTRICITY": 0.0034796, "INCLINATION": 98.7782, "RA_OF_ASC_NODE": 353.225, "ARG_OF_PERICENTER": 293.9132, "MEAN_ANOMALY": 65.8394, "EPHEMERIS_TYPE": 0, "CLASSIFICATION_TYPE": "U", "NORAD_CAT_ID": 30829, "ELEMENT_SET_NO": 999, "REV_AT_EPOCH": 96633, "BSTAR": 0.00042323, "MEAN_MOTION_DOT": 6.89e-06, "MEAN_MOTION_DDOT": 0}, "tle": {"line1": "1 30829U 99025AVP 25360.95508685  .00000689  00000+0  42323-3 0  9998", "line2": "2 30829  98.7782 353.2250 0034796 293.9132  65.8394 14.08675637966332"}}, "geometry": {"type": "Point", "coordinates": [-29.345921501728903, 68.80561431741839]}}, {"type": "Feature", "properties": {"norad_id": 30830, "name": "FENGYUN 1C DEB", "group": "fengyun-1c-debris", "lat": 60.795591948062146, "lon": -174.14778802865825, "alt_km": 825.68854733844, "timestamp": "2025-12-27T21:25:02.793221+00:00", "meta": {"OBJECT_NAME": "FENGYUN 1C DEB", "OBJECT_ID": "1999-025AVQ", "EPOCH": "2025-12-26T22:53:48.907392", "MEAN_MOTION": 14.12242909, "ECCENTRICITY": 0.0031371, "INCLINATION": 98.7304, "RA_OF_ASC_NODE": 348.9826, "ARG_OF_PERICENTER": 148.4546, "MEAN_ANOMALY": 241.6385, "EPHEMERIS_TYPE": 0, "CLASSIFICATION_TYPE": "U", "NORAD_CAT_ID": 30830, "ELEMENT_SET_NO": 999, "REV_AT_EPOCH": 96800, "BSTAR": 0.00027712, "MEAN_MOTION_DOT": 4.69e-06, "MEAN_MOTION_DDOT": 0}, "tle": {"line1": "1 30830U 99025AVQ 25360.95403828  .00000469  00000+0  27712-3 0  9994", "line2": "2 30830  98.7304 348.9826 0031371 148.4546 241.6385 14.12242909968000"}}, "geometry": {"type": "Point", "coordinates": [-174.14778802865825, 60.795591948062146]}}, {"type": "Feature", "properties": {"norad_id": 30831, "name": "FENGYUN 1C DEB", "group": "fengyun-1c-debris", "lat": -80.61083298692104, "lon": -108.00187338526574, "alt_km": 789.2242172753449, "timestamp": "2025-12-27T21:25:02.793233+00:00", "meta": {"OBJECT_NAME": "FENGYUN 1C DEB", "OBJECT_ID": "1999-025AVR", "EPOCH": "2025-12-26T05:34:05.943072", "MEAN_MOTION": 14.31116177, "ECCENTRICITY": 0.0055085, "INCLINATION": 99.3287, "RA_OF_ASC_NODE": 153.9814, "ARG_OF_PERICENTER": 355.2233, "MEAN_ANOMALY": 4.8415, "EPHEMERIS_TYPE": 0, "CLASSIFICATION_TYPE": "U", "NORAD_CAT_ID": 30831, "ELEMENT_SET_NO": 999, "REV_AT_EPOCH": 65443, "BSTAR": 0.00042706, "MEAN_MOTION_DOT": 1.095e-05, "MEAN_MOTION_DDOT": 0}, "tle": {"line1": "1 30831U 99025AVR 25360.23201323  .00001095  00000+0  42706-3 0  9998", "line2": "2 30831  99.3287 153.9814 0055085 355.2233   4.8415 14.31116177654438"}}, "geometry": {"type": "Point", "coordinates": [-108.00187338526574, -80.61083298692104]}}, {"type": "Feature", "properties": {"norad_id": 30833, "name": "FENGYUN 1C DEB", "group": "fengyun-1c-debris", "lat": 52.50563721377493, "lon": 136.77074755483184, "alt_km": 795.3259083368157, "timestamp": "2025-12-27T21:25:02.793244+00:00", "meta": {"OBJECT_NAME": "FENGYUN 1C DEB", "OBJECT_ID": "1999-025AVT", "EPOCH": "2025-12-27T06:01:09.228000", "MEAN_MOTION": 14.26797747, "ECCENTRICITY": 0.0033097, "INCLINATION": 99.8453, "RA_OF_ASC_NODE": 149.1326, "ARG_OF_PERICENTER": 140.5164, "MEAN_ANOMALY": 219.8433, "EPHEMERIS_TYPE": 0, "CLASSIFICATION_TYPE": "U", "NORAD_CAT_ID": 30833, "ELEMENT_SET_NO": 999, "REV_AT_EPOCH": 64618, "BSTAR": 0.00063819, "MEAN_MOTION_DOT": 1.502e-05, "MEAN_MOTION_DDOT": 0}, "tle": {"line1": "1 30833U 99025AVT 25361.25080125  .00001502  00000+0  63819-3 0  9999", "line2": "2 30833  99.8453 149.1326 0033097 140.5164 219.8433 14.26797747646185"}}, "geometry": {"type": "Point", "coordinates": [136.77074755483184, 52.50563721377493]}}, {"type": "Feature", "properties": {"norad_id": 30836, "name": "FENGYUN 1C DEB", "group": "fengyun-1c-debris", "lat": 64.2903197430993, "lon": -127.18277138353987, "alt_km": 845.3173011103136, "timestamp": "2025-12-27T21:25:02.793254+00:00", "meta": {"OBJECT_NAME": "FENGYUN 1C DEB", "OBJECT_ID": "1999-025AVW", "EPOCH": "2025-12-21T01:36:21.545856", "MEAN_MOTION": 14.11944491, "ECCENTRICITY": 0.00260217, "INCLINATION": 98.7439, "RA_OF_ASC_NODE": 27.5216, "ARG_OF_PERICENTER": 220.4586, "MEAN_ANOMALY": 139.4651, "EPHEMERIS_TYPE": 0, "CLASSIFICATION_TYPE": "U", "NORAD_CAT_ID": 30836, "ELEMENT_SET_NO": 999, "REV_AT_EPOCH": 62121, "BSTAR": 0.00026112112, "MEAN_MOTION_DOT": 4.36e-06, "MEAN_MOTION_DDOT": 0}, "tle": {"line1": "1 30836U 99025AVW 25355.06691604  .00000436  00000+0  26112-3 0  9994", "line2": "2 30836  98.7439  27.5216 0026021 220.4586 139.4651 14.11944491621212"}}, "geometry": {"type": "Point", "coordinates": [-127.18277138353987, 64.2903197430993]}}, {"type": "Feature", "properties": {"norad_id": 30837, "name": "FENGYUN 1C DEB", "group": "fengyun-1c-debris", "lat": -60.44178704848783, "lon": 3.3296801986068356, "alt_km": 872.4021782074306, "timestamp": "2025-12-27T21:25:02.793264+00:00", "meta": {"OBJECT_NAME": "FENGYUN 1C DEB", "OBJECT_ID": "1999-025AVX", "EPOCH": "2025-12-27T12:05:56.483808", "MEAN_MOTION": 14.1454012, "ECCENTRICITY": 0.0033365, "INCLINATION": 98.68, "RA_OF_ASC_NODE": 347.3258, "ARG_OF_PERICENTER": 92.2978, "MEAN_ANOMALY": 30.2197, "EPHEMERIS_TYPE": 0, "CLASSIFICATION_TYPE": "U", "NORAD_CAT_ID": 30837, "ELEMENT_SET_NO": 999, "REV_AT_EPOCH": 97027, "BSTAR": 0.00035511, "MEAN_MOTION_DOT": 6.43e-06, "MEAN_MOTION_DDOT": 0}, "tle": {"line1": "1 30837U 99025AVX 25361.50412597  .00000643  00000+0  35511-3 0  9996", "line2": "2 30837  98.6800 347.3258 0033365  92.2978  30.2197 14.14540120970272"}}, "geometry": {"type": "Point", "coordinates": [3.3296801986068356, -60.44178704848783]}}, {"type": "Feature", "properties": {"norad_id": 30838, "name": "FENGYUN 1C DEB", "group": "fengyun-1c-debris", "lat": -38.831496994915, "lon": -75.82741864499457, "alt_km": 760.5411941059165, "timestamp": "2025-12-27T21:25:02.793275+00:00", "meta": {"OBJECT_NAME": "FENGYUN 1C DEB", "OBJECT_ID": "1999-025AVY", "EPOCH": "2025-12-27T09:59:27.727296", "MEAN_MOTION": 14.47991672, "ECCENTRICITY": 0.0035509, "INCLINATION": 99.0423, "RA_OF_ASC_NODE": 276.2992, "ARG_OF_PERICENTER": 112.5256, "MEAN_ANOMALY": 247.9699, "EPHEMERIS_TYPE": 0, "CLASSIFICATION_TYPE": "U", "NORAD_CAT_ID": 30838, "ELEMENT_SET_NO": 999, "REV_AT_EPOCH": 97526, "BSTAR": 0.0027208, "MEAN_MOTION_DOT": 0.00010146, "MEAN_MOTION_DDOT": 0}, "tle": {"line1": "1 30838U 99025AVY 25361.41629314  .00010146  00000+0  27208-2 0  9996", "line2": "2 30838  99.0423 276.2992 0035509 112.5256 247.9699 14.47991672975267"}}, "geometry": {"type": "Point", "coordinates": [-75.82741864499457, -38.831496994915]}}, {"type": "Feature", "properties": {"norad_id": 30840, "name": "FENGYUN 1C DEB", "group": "fengyun-1c-debris", "lat": 81.74575823277102, "lon": -90.74146613053139, "alt_km": 775.7604763595382, "timestamp": "2025-12-27T21:25:02.793285+00:00", "meta": {"OBJECT_NAME": "FENGYUN 1C DEB", "OBJECT_ID": "1999-025AWA", "EPOCH": "2025-12-26T12:07:59.151072", "MEAN_MOTION": 14.61247002, "ECCENTRICITY": 0.0216339, "INCLINATION": 98.0229, "RA_OF_ASC_NODE": 11.4441, "ARG_OF_PERICENTER": 327.3141, "MEAN_ANOMALY": 31.4823, "EPHEMERIS_TYPE": 0, "CLASSIFICATION_TYPE": "U", "NORAD_CAT_ID": 30840, "ELEMENT_SET_NO": 999, "REV_AT_EPOCH": 73332, "BSTAR": 0.0008072, "MEAN_MOTION_DOT": 5.501e-05, "MEAN_MOTION_DDOT": 0}, "tle": {"line1": "1 30840U 99025AWA 25360.50554573  .00005501  00000+0  80720-3 0  9990", "line2": "2 30840  98.0229  11.4441 0216339 327.3141  31.4823 14.61247002733323"}}, "geometry": {"type": "Point", "coordinates": [-90.74146613053139, 81.74575823277102]}}, {"type": "Feature", "properties": {"norad_id": 30843, "name": "FENGYUN 1C DEB", "group": "fengyun-1c-debris", "lat": 13.390803114235796, "lon": -103.54900041898402, "alt_km": 721.319968542155, "timestamp": "2025-12-27T21:25:02.793296+00:00", "meta": {"OBJECT_NAME": "FENGYUN 1C DEB", "OBJECT_ID": "1999-025AWD", "EPOCH": "2025-12-24T03:23:32.017920", "MEAN_MOTION": 14.52491521, "ECCENTRICITY": 0.01488463, "INCLINATION": 98.841, "RA_OF_ASC_NODE": 70.3765, "ARG_OF_PERICENTER": 85.3289, "MEAN_ANOMALY": 276.4887, "EPHEMERIS_TYPE": 0, "CLASSIFICATION_TYPE": "U", "NORAD_CAT_ID": 30843, "ELEMENT_SET_NO": 999, "REV_AT_EPOCH": 99490, "BSTAR": 0.00012943843, "MEAN_MOTION_DOT": 5.54e-06, "MEAN_MOTION_DDOT": 0}, "tle": {"line1": "1 30843U 99025AWD 25358.14134280  .00000554  00000+0  12944-3 0  9995", "line2": "2 30843  98.8410  70.3765 0148846  85.3289 276.4887 14.52491521994901"}}, "geometry": {"type": "Point", "coordinates": [-103.54900041898402, 13.390803114235796]}}, {"type": "Feature", "properties": {"norad_id": 30845, "name": "FENGYUN 1C DEB", "group": "fengyun-1c-debris", "lat": -65.46669795959089, "lon": 19.524162606831247, "alt_km": 917.898948722288, "timestamp": "2025-12-27T21:25:02.793306+00:00", "meta": {"OBJECT_NAME": "FENGYUN 1C DEB", "OBJECT_ID": "1999-025AWF", "EPOCH": "2025-12-27T12:03:11.248128", "MEAN_MOTION": 13.76868435, "ECCENTRICITY": 0.0192248, "INCLINATION": 98.3795, "RA_OF_ASC_NODE": 0.3402, "ARG_OF_PERICENTER": 230.3177, "MEAN_ANOMALY": 287.9468, "EPHEMERIS_TYPE": 0, "CLASSIFICATION_TYPE": "U", "NORAD_CAT_ID": 30845, "ELEMENT_SET_NO": 999, "REV_AT_EPOCH": 94446, "BSTAR": 0.00032003, "MEAN_MOTION_DOT": 3.24e-06, "MEAN_MOTION_DDOT": 0}, "tle": {"line1": "1 30845U 99025AWF 25361.50221352  .00000324  00000+0  32003-3 0  9991", "line2": "2 30845  98.3795   0.3402 0192248 230.3177 287.9468 13.76868435944463"}}, "geometry": {"type": "Point", "coordinates": [19.524162606831247, -65.46669795959089]}}]}